CCSDS_OMM_VERS = 2.0
CREATION_DATE  = 
ORIGINATOR     = 

OBJECT_NAME    = SL-16 R/B
OBJECT_ID      = 1998-043G
CENTER_NAME    = EARTH
REF_FRAME      = TEME
TIME_SYSTEM    = UTC
MEAN_ELEMENT_THEORY = SGP/SGP4

EPOCH          = 2025-12-04T07:24:10.779840
MEAN_MOTION    = 14.26022463
ECCENTRICITY   = .00088977
INCLINATION    = 98.8111
RA_OF_ASC_NODE = 286.0798
ARG_OF_PERICENTER = 294.0364
MEAN_ANOMALY   = 65.9884

EPHEMERIS_TYPE = 0
CLASSIFICATION_TYPE = U
NORAD_CAT_ID   = 25400
ELEMENT_SET_NO = 999
REV_AT_EPOCH   = 42539
BSTAR          = .8958227E-4
MEAN_MOTION_DOT = .169E-5
MEAN_MOTION_DDOT = 0

CCSDS_OMM_VERS = 2.0
CREATION_DATE  = 
ORIGINATOR     = 

OBJECT_NAME    = SL-16 R/B
OBJECT_ID      = 1998-045B
CENTER_NAME    = EARTH
REF_FRAME      = TEME
TIME_SYSTEM    = UTC
MEAN_ELEMENT_THEORY = SGP/SGP4

EPOCH          = 2025-12-04T06:55:39.055008
MEAN_MOTION    = 14.16175695
ECCENTRICITY   = .00074142
INCLINATION    = 71.0126
RA_OF_ASC_NODE = 22.1994
ARG_OF_PERICENTER = 190.0462
MEAN_ANOMALY   = 170.0515

EPHEMERIS_TYPE = 0
CLASSIFICATION_TYPE = U
NORAD_CAT_ID   = 25407
ELEMENT_SET_NO = 999
REV_AT_EPOCH   = 41359
BSTAR          = .7374879E-4
MEAN_MOTION_DOT = .98E-6
MEAN_MOTION_DDOT = 0

CCSDS_OMM_VERS = 2.0
CREATION_DATE  = 
ORIGINATOR     = 

OBJECT_NAME    = ISS (ZARYA)
OBJECT_ID      = 1998-067A
CENTER_NAME    = EARTH
REF_FRAME      = TEME
TIME_SYSTEM    = UTC
MEAN_ELEMENT_THEORY = SGP/SGP4

EPOCH          = 2025-12-04T02:12:18.455328
MEAN_MOTION    = 15.49293095
ECCENTRICITY   = .00036281
INCLINATION    = 51.6302
RA_OF_ASC_NODE = 185.2932
ARG_OF_PERICENTER = 200.9086
MEAN_ANOMALY   = 159.1754

EPHEMERIS_TYPE = 0
CLASSIFICATION_TYPE = U
NORAD_CAT_ID   = 25544
ELEMENT_SET_NO = 999
REV_AT_EPOCH   = 54151
BSTAR          = .29177423E-3
MEAN_MOTION_DOT = .15824E-3
MEAN_MOTION_DDOT = 0

CCSDS_OMM_VERS = 2.0
CREATION_DATE  = 
ORIGINATOR     = 

OBJECT_NAME    = CZ-4B R/B
OBJECT_ID      = 1999-025C
CENTER_NAME    = EARTH
REF_FRAME      = TEME
TIME_SYSTEM    = UTC
MEAN_ELEMENT_THEORY = SGP/SGP4

EPOCH          = 2025-12-04T03:26:00.790080
MEAN_MOTION    = 14.18240579
ECCENTRICITY   = .00361271
INCLINATION    = 98.6779
RA_OF_ASC_NODE = 19.6149
ARG_OF_PERICENTER = 259.4053
MEAN_ANOMALY   = 166.4282

EPHEMERIS_TYPE = 0
CLASSIFICATION_TYPE = U
NORAD_CAT_ID   = 25732
ELEMENT_SET_NO = 999
REV_AT_EPOCH   = 37462
BSTAR          = .11627811E-3
MEAN_MOTION_DOT = .197E-5
MEAN_MOTION_DDOT = 0

CCSDS_OMM_VERS = 2.0
CREATION_DATE  = 
ORIGINATOR     = 

OBJECT_NAME    = OKEAN-O
OBJECT_ID      = 1999-039A
CENTER_NAME    = EARTH
REF_FRAME      = TEME
TIME_SYSTEM    = UTC
MEAN_ELEMENT_THEORY = SGP/SGP4

EPOCH          = 2025-12-04T03:16:37.005024
MEAN_MOTION    = 14.80138381
ECCENTRICITY   = .00007824
INCLINATION    = 97.9615
RA_OF_ASC_NODE = 33.9122
ARG_OF_PERICENTER = 77.8744
MEAN_ANOMALY   = 282.2556

EPHEMERIS_TYPE = 0
CLASSIFICATION_TYPE = U
NORAD_CAT_ID   = 25860
ELEMENT_SET_NO = 999
REV_AT_EPOCH   = 42025
BSTAR          = .19910338E-3
MEAN_MOTION_DOT = .1459E-4
MEAN_MOTION_DDOT = 0

CCSDS_OMM_VERS = 2.0
CREATION_DATE  = 
ORIGINATOR     = 

OBJECT_NAME    = SL-16 R/B
OBJECT_ID      = 1999-039B
CENTER_NAME    = EARTH
REF_FRAME      = TEME
TIME_SYSTEM    = UTC
MEAN_ELEMENT_THEORY = SGP/SGP4

EPOCH          = 2025-12-04T03:21:26.833824
MEAN_MOTION    = 14.81567564
ECCENTRICITY   = .00142842
INCLINATION    = 98.0138
RA_OF_ASC_NODE = 32.2902
ARG_OF_PERICENTER = 203.0208
MEAN_ANOMALY   = 157.0366

EPHEMERIS_TYPE = 0
CLASSIFICATION_TYPE = U
NORAD_CAT_ID   = 25861
ELEMENT_SET_NO = 999
REV_AT_EPOCH   = 42271
BSTAR          = .1730822E-3
MEAN_MOTION_DOT = .1307E-4
MEAN_MOTION_DDOT = 0

CCSDS_OMM_VERS = 2.0
CREATION_DATE  = 
ORIGINATOR     = 

OBJECT_NAME    = DELTA 2 R/B
OBJECT_ID      = 1999-041E
CENTER_NAME    = EARTH
REF_FRAME      = TEME
TIME_SYSTEM    = UTC
MEAN_ELEMENT_THEORY = SGP/SGP4

EPOCH          = 2025-12-04T03:29:19.682016
MEAN_MOTION    = 14.11367023
ECCENTRICITY   = .05048033
INCLINATION    = 51.7623
RA_OF_ASC_NODE = 322.7534
ARG_OF_PERICENTER = 66.4368
MEAN_ANOMALY   = 298.8745

EPHEMERIS_TYPE = 0
CLASSIFICATION_TYPE = U
NORAD_CAT_ID   = 25876
ELEMENT_SET_NO = 999
REV_AT_EPOCH   = 34953
BSTAR          = .39069939E-3
MEAN_MOTION_DOT = .2184E-4
MEAN_MOTION_DDOT = 0

CCSDS_OMM_VERS = 2.0
CREATION_DATE  = 
ORIGINATOR     = 

OBJECT_NAME    = HELIOS 1B
OBJECT_ID      = 1999-064A
CENTER_NAME    = EARTH
REF_FRAME      = TEME
TIME_SYSTEM    = UTC
MEAN_ELEMENT_THEORY = SGP/SGP4

EPOCH          = 2025-12-04T06:13:03.275616
MEAN_MOTION    = 14.87227012
ECCENTRICITY   = .00021339
INCLINATION    = 98.1755
RA_OF_ASC_NODE = 232.6730
ARG_OF_PERICENTER = 53.8276
MEAN_ANOMALY   = 306.3136

EPHEMERIS_TYPE = 0
CLASSIFICATION_TYPE = U
NORAD_CAT_ID   = 25977
ELEMENT_SET_NO = 999
REV_AT_EPOCH   = 67107
BSTAR          = .51551299E-3
MEAN_MOTION_DOT = .4586E-4
MEAN_MOTION_DDOT = 0

CCSDS_OMM_VERS = 2.0
CREATION_DATE  = 
ORIGINATOR     = 

OBJECT_NAME    = TERRA
OBJECT_ID      = 1999-068A
CENTER_NAME    = EARTH
REF_FRAME      = TEME
TIME_SYSTEM    = UTC
MEAN_ELEMENT_THEORY = SGP/SGP4

EPOCH          = 2025-12-04T07:28:15.157056
MEAN_MOTION    = 14.60938149
ECCENTRICITY   = .00034353
INCLINATION    = 97.9761
RA_OF_ASC_NODE = 30.3045
ARG_OF_PERICENTER = 114.7985
MEAN_ANOMALY   = 314.3681

EPHEMERIS_TYPE = 0
CLASSIFICATION_TYPE = U
NORAD_CAT_ID   = 25994
ELEMENT_SET_NO = 999
REV_AT_EPOCH   = 38115
BSTAR          = .22822242E-3
MEAN_MOTION_DOT = .1073E-4
MEAN_MOTION_DDOT = 0

CCSDS_OMM_VERS = 2.0
CREATION_DATE  = 
ORIGINATOR     = 

OBJECT_NAME    = SL-16 R/B
OBJECT_ID      = 2000-006B
CENTER_NAME    = EARTH
REF_FRAME      = TEME
TIME_SYSTEM    = UTC
MEAN_ELEMENT_THEORY = SGP/SGP4

EPOCH          = 2025-12-04T06:42:13.317120
MEAN_MOTION    = 14.15808538
ECCENTRICITY   = .00180215
INCLINATION    = 71.0028
RA_OF_ASC_NODE = 298.4464
ARG_OF_PERICENTER = 320.4085
MEAN_ANOMALY   = 39.5721

EPHEMERIS_TYPE = 0
CLASSIFICATION_TYPE = U
NORAD_CAT_ID   = 26070
ELEMENT_SET_NO = 999
REV_AT_EPOCH   = 33505
BSTAR          = .18661884E-3
MEAN_MOTION_DOT = .32E-5
MEAN_MOTION_DDOT = 0

CCSDS_OMM_VERS = 2.0
CREATION_DATE  = 
ORIGINATOR     = 

OBJECT_NAME    = TITAN 4B R/B
OBJECT_ID      = 2000-047B
CENTER_NAME    = EARTH
REF_FRAME      = TEME
TIME_SYSTEM    = UTC
MEAN_ELEMENT_THEORY = SGP/SGP4

EPOCH          = 2025-12-04T06:10:32.178432
MEAN_MOTION    = 15.08682609
ECCENTRICITY   = .00396237
INCLINATION    = 67.9899
RA_OF_ASC_NODE = 308.6761
ARG_OF_PERICENTER = 154.7498
MEAN_ANOMALY   = 205.5600

EPHEMERIS_TYPE = 0
CLASSIFICATION_TYPE = U
NORAD_CAT_ID   = 26474
ELEMENT_SET_NO = 999
REV_AT_EPOCH   = 37851
BSTAR          = .50081288E-3
MEAN_MOTION_DOT = .7887E-4
MEAN_MOTION_DDOT = 0

CCSDS_OMM_VERS = 2.0
CREATION_DATE  = 
ORIGINATOR     = 

OBJECT_NAME    = ENVISAT
OBJECT_ID      = 2002-009A
CENTER_NAME    = EARTH
REF_FRAME      = TEME
TIME_SYSTEM    = UTC
MEAN_ELEMENT_THEORY = SGP/SGP4

EPOCH          = 2025-12-04T08:42:48.931776
MEAN_MOTION    = 14.38994616
ECCENTRICITY   = .000115
INCLINATION    = 98.3587
RA_OF_ASC_NODE = 289.3165
ARG_OF_PERICENTER = 82.1735
MEAN_ANOMALY   = 31.4530

EPHEMERIS_TYPE = 0
CLASSIFICATION_TYPE = U
NORAD_CAT_ID   = 27386
ELEMENT_SET_NO = 999
REV_AT_EPOCH   = 24546
BSTAR          = .11152873E-3
MEAN_MOTION_DOT = .301E-5
MEAN_MOTION_DDOT = 0

