SL-16 R/B               
1 25400U 98043G   25338.30845810  .00000169  00000+0  89582-4 0  9996
2 25400  98.8111 286.0798 0008897 294.0364  65.9884 14.26022463425394
SL-16 R/B               
1 25407U 98045B   25338.28864647  .00000098  00000+0  73749-4 0  9990
2 25407  71.0126  22.1994 0007414 190.0462 170.0515 14.16175695413598
ISS (ZARYA)             
1 25544U 98067A   25338.09188027  .00015824  00000+0  29177-3 0  9994
2 25544  51.6302 185.2932 0003628 200.9086 159.1754 15.49293095541518
CZ-4B R/B               
1 25732U 99025C   25338.14306470  .00000197  00000+0  11628-3 0  9997
2 25732  98.6779  19.6149 0036127 259.4053 166.4282 14.18240579374626
OKEAN-O                 
1 25860U 99039A   25338.13653941  .00001459  00000+0  19910-3 0  9995
2 25860  97.9615  33.9122 0000782  77.8744 282.2556 14.80138381420254
SL-16 R/B               
1 25861U 99039B   25338.13989391  .00001307  00000+0  17308-3 0  9998
2 25861  98.0138  32.2902 0014284 203.0208 157.0366 14.81567564422716
DELTA 2 R/B             
1 25876U 99041E   25338.14536669  .00002184  00000+0  39070-3 0  9998
2 25876  51.7623 322.7534 0504803  66.4368 298.8745 14.11367023349538
HELIOS 1B               
1 25977U 99064A   25338.25906569  .00004586  00000+0  51551-3 0  9993
2 25977  98.1755 232.6730 0002133  53.8276 306.3136 14.87227012671077
TERRA                   
1 25994U 99068A   25338.31128654  .00001073  00000+0  22822-3 0  9991
2 25994  97.9761  30.3045 0003435 114.7985 314.3681 14.60938149381154
SL-16 R/B               
1 26070U 00006B   25338.27932080  .00000320  00000+0  18662-3 0  9993
2 26070  71.0028 298.4464 0018021 320.4085  39.5721 14.15808538335052
TITAN 4B R/B            
1 26474U 00047B   25338.25731688  .00007887  00000+0  50081-3 0  9991
2 26474  67.9899 308.6761 0039623 154.7498 205.5600 15.08682609378512
ENVISAT                 
1 27386U 02009A   25338.36306634  .00000301  00000+0  11153-3 0  9996
2 27386  98.3587 289.3165 0001150  82.1735  31.4530 14.38994616245463
